<?xml version="1.0" encoding="UTF-8"?><kml xmlns="http://www.opengis.net/kml/2.2"><Document><name>Wildfire roadside survey anchors</name><Placemark><name>R01 · E1 · ทางดินตะวันออกตอนเหนือ</name><description>PROPOSED. Road centerline survey anchor, not foundation. Solar, permissions and radio NOT VERIFIED. OSM way 696213525. รับลมและตรวจควันด้านตะวันออกตอนเหนือ พร้อม Gateway ฝั่งตะวันออก</description><Point><coordinates>98.8712384,18.8189027,0</coordinates></Point></Placemark><Placemark><name>R02 · E2 · ทางดินตะวันออกใกล้หมุดกลาง</name><description>PROPOSED. Road centerline survey anchor, not foundation. Solar, permissions and radio NOT VERIFIED. OSM way 696213525. ตรวจควันข้ามลาดเขาจากหมุดกลางตามแนวที่ผู้ใช้วงไว้</description><Point><coordinates>98.869423,18.8157345,0</coordinates></Point></Placemark><Placemark><name>R03 · E3 · ทางดินด้านในตะวันออกเฉียงใต้</name><description>PROPOSED. Road centerline survey anchor, not foundation. Solar, permissions and radio NOT VERIFIED. OSM way 696213512. จุดใกล้หมุดกลางที่สุดในชุดนี้ แต่จะตรวจได้เมื่อควันมาถึง ไม่ใช่ตรวจได้ทุกทิศ</description><Point><coordinates>98.8656835,18.8097818,0</coordinates></Point></Placemark><Placemark><name>R04 · E4 · แนวทางตะวันออกตอนกลาง–ใต้</name><description>PROPOSED. Road centerline survey anchor, not foundation. Solar, permissions and radio NOT VERIFIED. OSM way 255517026. เติมแนวตรวจบนทางดินฝั่งตะวันออกลงมาทางใต้</description><Point><coordinates>98.8676286,18.8045497,0</coordinates></Point></Placemark><Placemark><name>R05 · E5 · แนวทางตะวันออกตอนล่าง</name><description>PROPOSED. Road centerline survey anchor, not foundation. Solar, permissions and radio NOT VERIFIED. OSM way 1215941741. ตรวจบริเวณปลายแนวตะวันออกและควันทางใต้</description><Point><coordinates>98.8653743,18.7980103,0</coordinates></Point></Placemark><Placemark><name>R06 · W1 · ทางเกษตรตะวันตกตอนเหนือ</name><description>PROPOSED. Road centerline survey anchor, not foundation. Solar, permissions and radio NOT VERIFIED. OSM way 1112030805. วัดลมและตรวจควันบริเวณเปิดฝั่งตะวันตกตอนเหนือ พร้อม Gateway ฝั่งตะวันตก</description><Point><coordinates>98.8513756,18.8205318,0</coordinates></Point></Placemark><Placemark><name>R07 · W2 · ทางเกษตรตะวันตกตอนกลาง</name><description>PROPOSED. Road centerline survey anchor, not foundation. Solar, permissions and radio NOT VERIFIED. OSM way 1238533290. รับควันฝั่งตะวันตกช่วงกลาง แยกจากจุดที่สูงกว่า W1</description><Point><coordinates>98.8504127,18.8150537,0</coordinates></Point></Placemark><Placemark><name>R08 · W3 · ทางเกษตรตะวันตกตอนใต้</name><description>PROPOSED. Road centerline survey anchor, not foundation. Solar, permissions and radio NOT VERIFIED. OSM way 1125539934. เติมแนวตรวจทางเกษตรฝั่งตะวันตกตอนใต้</description><Point><coordinates>98.8505923,18.8068676,0</coordinates></Point></Placemark><Placemark><name>R09 · W4 · แนวถนนปลายด้านตะวันตกเฉียงใต้</name><description>PROPOSED. Road centerline survey anchor, not foundation. Solar, permissions and radio NOT VERIFIED. OSM way 964524419. เฝ้าระวังปลายแนวถนนด้านตะวันตกเฉียงใต้ใกล้ขอบพื้นที่ศึกษา</description><Point><coordinates>98.8491976,18.8009826,0</coordinates></Point></Placemark></Document></kml>